OBJECT_NAME,OBJECT_ID,EPOCH,MEAN_MOTION,ECCENTRICITY,INCLINATION,RA_OF_ASC_NODE,ARG_OF_PERICENTER,MEAN_ANOMALY,EPHEMERIS_TYPE,CLASSIFICATION_TYPE,NORAD_CAT_ID,ELEMENT_SET_NO,REV_AT_EPOCH,BSTAR,MEAN_MOTION_DOT,MEAN_MOTION_DDOT
SKYSAT-C1,2016-040C,2026-07-23T00:48:00.612288,15.36845504,.00009771,96.9557,233.8198,185.7159,174.4075,0,U,41601,999,56337,.26336859E-3,.9412E-4,0
LAPAN-A3,2016-040E,2026-07-23T06:46:52.245696,15.33314779,.00084508,97.1511,199.2510,240.0882,119.9523,0,U,41603,999,56034,.10904992E-3,.3438E-4,0
GAOFEN-3,2016-049A,2026-07-23T07:10:55.447968,14.42219342,.00017834,98.4028,211.5413,82.8238,277.3154,0,U,41727,999,52385,.39964909E-4,.88E-6,0
SKYSAT-C4,2016-058B,2026-07-23T01:16:29.641440,15.49634823,.00035625,96.9177,224.3470,108.3009,251.8631,0,U,41771,999,55102,.34723422E-3,.19147E-3,0
SKYSAT-C5,2016-058C,2026-07-23T02:32:02.213088,15.33797689,.0003402,97.0456,243.1260,142.5858,217.5623,0,U,41772,999,54925,.22409363E-3,.7252E-4,0
SKYSAT-C2,2016-058D,2026-07-23T07:54:04.473216,15.42821230,.00006619,97.0165,225.0801,273.3925,86.7248,0,U,41773,999,55062,.27930384E-3,.12159E-3,0
SKYSAT-C3,2016-058E,2026-07-23T00:38:22.706880,15.53977740,.00028887,96.9002,233.5269,123.8234,236.3296,0,U,41774,999,55167,.39629242E-3,.25552E-3,0
ALSAT-1B,2016-059C,2026-07-23T07:52:55.996896,14.72299220,.00107669,97.7766,211.5336,107.0666,253.1723,0,U,41785,999,52589,.85502865E-4,.494E-5,0
PATHFINDER 1,2016-059E,2026-07-23T06:28:28.600608,14.67700551,.00299696,97.8182,201.9202,91.2135,269.2504,0,U,41787,999,52500,.10719047E-3,.568E-5,0
SCATSAT 1,2016-059H,2026-07-23T04:36:06.814656,14.79602572,.00556778,98.1171,268.3263,131.2166,229.3864,0,U,41790,999,10691,.16041835E-3,.1177E-4,0
GOKTURK 1A,2016-073A,2026-07-23T07:03:51.285312,14.62797974,.00014426,98.1198,98.3946,81.1820,278.9545,0,U,41875,999,51410,.11563264E-3,.543E-5,0
RESOURCESAT-2A,2016-074A,2026-07-23T05:56:12.017184,14.21610774,.00018592,98.7512,277.4543,9.2418,350.8793,0,U,41877,999,49942,.1151661E-3,.208E-5,0
CARTOSAT-2D,2017-008A,2026-07-23T07:37:02.488224,15.19327348,.00065096,97.4085,262.9436,117.6697,242.5199,0,U,41948,999,52306,.16714576E-3,.3464E-4,0
SENTINEL-2B,2017-013A,2026-07-23T06:59:39.869088,14.30816245,.0001232,98.5676,278.5537,93.8929,266.2395,0,U,42063,999,48980,-.25046388E-4,-.109E-5,0
CARTOSAT-2E,2017-036C,2026-07-23T06:28:00.640704,15.19298695,.00042457,97.4255,263.4724,160.8288,199.3107,0,U,42767,999,50362,.18284195E-3,.3792E-4,0
FORMOSAT-5,2017-049A,2026-07-23T06:12:13.663872,14.50894220,.00108507,98.2240,278.7646,338.2719,21.8015,0,U,42920,999,47190,.27004693E-4,.63E-6,0
SENTINEL-5P,2017-064A,2026-07-23T06:58:31.418688,14.19524294,.00012076,98.7929,146.1668,92.3833,267.7481,0,U,42969,999,45468,.37046843E-4,.34E-6,0
SKYSAT-C11,2017-068A,2026-07-22T16:26:34.592640,15.59645696,.00015064,97.4384,354.1178,150.3189,209.8153,0,U,42987,999,48877,.39232622E-3,.31225E-3,0
SKYSAT-C10,2017-068B,2026-07-22T19:43:05.162592,15.35228657,.00015443,97.4541,341.0397,109.9336,250.2073,0,U,42988,999,48782,.32885609E-3,.1117E-3,0
SKYSAT-C9,2017-068C,2026-07-23T07:40:29.192448,15.42362279,.00079441,97.4460,342.8295,17.0072,343.1440,0,U,42989,999,48832,.29466124E-3,.12642E-3,0
SKYSAT-C8,2017-068D,2026-07-23T07:46:18.741792,15.37611068,.00013124,97.4557,341.4865,107.4214,252.7174,0,U,42990,999,48786,.28468871E-3,.10428E-3,0
SKYSAT-C7,2017-068E,2026-07-23T07:38:44.654496,15.37559306,.00049583,97.4568,342.4736,351.7605,8.3557,0,U,42991,999,48792,.28090896E-3,.10274E-3,0
SKYSAT-C6,2017-068F,2026-07-23T02:02:15.569088,15.34270039,.00048122,97.4607,342.0542,69.2184,290.9574,0,U,42992,999,48782,.3043931E-3,.10024E-3,0
CARTOSAT-2F,2018-004A,2026-07-23T07:15:28.345824,15.19219282,.00028286,97.4769,263.5792,121.8311,238.3199,0,U,43111,999,47281,.22261568E-3,.462E-4,0
GAOFEN-1 02,2018-031A,2026-07-23T06:50:00.328128,14.76480949,.00016079,98.0507,266.7072,232.7072,127.3991,0,U,43259,999,44802,.15253606E-3,.101E-4,0
GAOFEN-1 03,2018-031B,2026-07-23T07:56:07.681344,14.76470880,.00017589,98.0498,266.6071,348.9236,11.1935,0,U,43260,999,44802,.98207392E-4,.632E-5,0
GAOFEN-1 04,2018-031D,2026-07-23T07:21:16.613856,14.76444771,.00007926,98.0508,266.7782,59.9585,300.1703,0,U,43262,999,44801,.47245527E-4,.277E-5,0
SENTINEL-3B,2018-039A,2026-07-23T03:59:30.236352,14.26738051,.00013055,98.6229,271.1788,118.4343,241.6969,0,U,43437,999,42925,.4928206E-4,.76E-6,0
GAOFEN-5 01,2018-043A,2026-07-22T21:21:03.265632,14.60627011,.00016217,98.4598,176.2313,14.7402,345.3845,0,U,43461,999,43690,.62328899E-4,.254E-5,0
GAOFEN-6,2018-048A,2026-07-23T07:54:13.913280,14.76389363,.00119033,98.0950,267.0500,58.9417,301.2959,0,U,43484,999,43872,.61279607E-4,.374E-5,0
